{"type": "FeatureCollection", "features": [ {"type": "Feature", "properties": {"norad_id": 32322, "name": "FENGYUN 1C DEB", "group": "fengyun-1c-debris", "lat": -7.82005878278411, "lon": -133.51551801907152, "alt_km": 1263.40662068063, "timestamp": "2025-12-08T10:52:03.233821+00:00", "meta": {"OBJECT_NAME": "FENGYUN 1C DEB", "OBJECT_ID": "1999-025CXP", "EPOCH": "2025-12-07T22:18:32.195520", "MEAN_MOTION": 13.34123014, "ECCENTRICITY": 0.0418878, "INCLINATION": 98.3703, "RA_OF_ASC_NODE": 224.8964, "ARG_OF_PERICENTER": 109.7837, "MEAN_ANOMALY": 254.8956, "EPHEMERIS_TYPE": 0, "CLASSIFICATION_TYPE": "U", "NORAD_CAT_ID": 32322, "ELEMENT_SET_NO": 999, "REV_AT_EPOCH": 60315, "BSTAR": 0.0015080996, "MEAN_MOTION_DOT": 1.203e-05, "MEAN_MOTION_DDOT": 0}, "tle": {"line1": "1 32322U 99025CXP 25341.92953930  .00001203  00000+0  15081-2 0  9994", "line2": "2 32322  98.3703 224.8964 0418878 109.7837 254.8956 13.34123014603156"}}, "geometry": {"type": "Point", "coordinates": [-133.51551801907152, -7.82005878278411]}}, {"type": "Feature", "properties": {"norad_id": 32323, "name": "FENGYUN 1C DEB", "group": "fengyun-1c-debris", "lat": -43.19337525001812, "lon": 134.06945640007464, "alt_km": 919.3467264406909, "timestamp": "2025-12-08T10:52:03.233831+00:00", "meta": {"OBJECT_NAME": "FENGYUN 1C DEB", "OBJECT_ID": "1999-025CXQ", "EPOCH": "2025-12-05T16:00:52.628256", "MEAN_MOTION": 13.96423813, "ECCENTRICITY": 0.01564823, "INCLINATION": 98.5677, "RA_OF_ASC_NODE": 123.338, "ARG_OF_PERICENTER": 229.7568, "MEAN_ANOMALY": 128.9821, "EPHEMERIS_TYPE": 0, "CLASSIFICATION_TYPE": "U", "NORAD_CAT_ID": 32323, "ELEMENT_SET_NO": 999, "REV_AT_EPOCH": 60171, "BSTAR": 0.0059154955, "MEAN_MOTION_DOT": 9.02e-05, "MEAN_MOTION_DDOT": 0}, "tle": {"line1": "1 32323U 99025CXQ 25339.66727579  .00009020  00000+0  59155-2 0  9996", "line2": "2 32323  98.5677 123.3380 0156482 229.7568 128.9821 13.96423813601718"}}, "geometry": {"type": "Point", "coordinates": [134.06945640007464, -43.19337525001812]}}, {"type": "Feature", "properties": {"norad_id": 32324, "name": "FENGYUN 1C DEB", "group": "fengyun-1c-debris", "lat": -59.73094163889748, "lon": 100.69601720902567, "alt_km": 873.5206897147427, "timestamp": "2025-12-08T10:52:03.233841+00:00", "meta": {"OBJECT_NAME": "FENGYUN 1C DEB", "OBJECT_ID": "1999-025CXR", "EPOCH": "2025-12-06T13:08:44.151072", "MEAN_MOTION": 14.0913114, "ECCENTRICITY": 0.00500722, "INCLINATION": 99.5341, "RA_OF_ASC_NODE": 81.946, "ARG_OF_PERICENTER": 40.9873, "MEAN_ANOMALY": 319.5041, "EPHEMERIS_TYPE": 0, "CLASSIFICATION_TYPE": "U", "NORAD_CAT_ID": 32324, "ELEMENT_SET_NO": 999, "REV_AT_EPOCH": 63911, "BSTAR": 0.00082409319, "MEAN_MOTION_DOT": 1.398e-05, "MEAN_MOTION_DDOT": 0}, "tle": {"line1": "1 32324U 99025CXR 25340.54773323  .00001398  00000+0  82409-3 0  9993", "line2": "2 32324  99.5341  81.9460 0050072  40.9873 319.5041 14.09131140639117"}}, "geometry": {"type": "Point", "coordinates": [100.69601720902567, -59.73094163889748]}}, {"type": "Feature", "properties": {"norad_id": 32326, "name": "FENGYUN 1C DEB", "group": "fengyun-1c-debris", "lat": 75.88214042465756, "lon": -124.0900068413756, "alt_km": 897.3254618242481, "timestamp": "2025-12-08T10:52:03.233851+00:00", "meta": {"OBJECT_NAME": "FENGYUN 1C DEB", "OBJECT_ID": "1999-025CXT", "EPOCH": "2025-11-30T02:32:37.979232", "MEAN_MOTION": 13.69261307, "ECCENTRICITY": 0.03856265, "INCLINATION": 98.486, "RA_OF_ASC_NODE": 264.9459, "ARG_OF_PERICENTER": 173.0082, "MEAN_ANOMALY": 187.6669, "EPHEMERIS_TYPE": 0, "CLASSIFICATION_TYPE": "U", "NORAD_CAT_ID": 32326, "ELEMENT_SET_NO": 999, "REV_AT_EPOCH": 63009, "BSTAR": 0.00044957354, "MEAN_MOTION_DOT": 6.22e-06, "MEAN_MOTION_DDOT": 0}, "tle": {"line1": "1 32326U 99025CXT 25334.10599513  .00000622  00000+0  44957-3 0  9992", "line2": "2 32326  98.4860 264.9459 0385626 173.0082 187.6669 13.69261307630092"}}, "geometry": {"type": "Point", "coordinates": [-124.0900068413756, 75.88214042465756]}}, {"type": "Feature", "properties": {"norad_id": 32331, "name": "FENGYUN 1C DEB", "group": "fengyun-1c-debris", "lat": 39.48289964208918, "lon": -58.183658320847236, "alt_km": 654.8319397964497, "timestamp": "2025-12-08T10:52:03.233862+00:00", "meta": {"OBJECT_NAME": "FENGYUN 1C DEB", "OBJECT_ID": "1999-025CXY", "EPOCH": "2025-11-11T08:35:02.141088", "MEAN_MOTION": 14.68670701, "ECCENTRICITY": 0.0013407, "INCLINATION": 99.1837, "RA_OF_ASC_NODE": 279.0061, "ARG_OF_PERICENTER": 226.0291, "MEAN_ANOMALY": 133.9806, "EPHEMERIS_TYPE": 0, "CLASSIFICATION_TYPE": "U", "NORAD_CAT_ID": 32331, "ELEMENT_SET_NO": 999, "REV_AT_EPOCH": 60157, "BSTAR": 0.0092524, "MEAN_MOTION_DOT": 0.0005428, "MEAN_MOTION_DDOT": 0}, "tle": {"line1": "1 32331U 99025CXY 25315.35766367  .00054280  00000+0  92524-2 0  9998", "line2": "2 32331  99.1837 279.0061 0013407 226.0291 133.9806 14.68670701601572"}}, "geometry": {"type": "Point", "coordinates": [-58.183658320847236, 39.48289964208918]}}, {"type": "Feature", "properties": {"norad_id": 32332, "name": "FENGYUN 1C DEB", "group": "fengyun-1c-debris", "lat": 69.84763927202368, "lon": -117.47894400179504, "alt_km": 1061.3571495685128, "timestamp": "2025-12-08T10:52:03.233872+00:00", "meta": {"OBJECT_NAME": "FENGYUN 1C DEB", "OBJECT_ID": "1999-025CXZ", "EPOCH": "2025-12-05T10:09:55.704096", "MEAN_MOTION": 13.97072998, "ECCENTRICITY": 0.02849151, "INCLINATION": 99.1331, "RA_OF_ASC_NODE": 33.5093, "ARG_OF_PERICENTER": 332.9459, "MEAN_ANOMALY": 25.7092, "EPHEMERIS_TYPE": 0, "CLASSIFICATION_TYPE": "U", "NORAD_CAT_ID": 32332, "ELEMENT_SET_NO": 999, "REV_AT_EPOCH": 92934, "BSTAR": 0.0024167195, "MEAN_MOTION_DOT": 4.715e-05, "MEAN_MOTION_DDOT": 0}, "tle": {"line1": "1 32332U 99025CXZ 25339.42356139  .00004715  00000+0  24167-2 0  9991", "line2": "2 32332  99.1331  33.5093 0284915 332.9459  25.7092 13.97072998929345"}}, "geometry": {"type": "Point", "coordinates": [-117.47894400179504, 69.84763927202368]}}, {"type": "Feature", "properties": {"norad_id": 32334, "name": "FENGYUN 1C DEB", "group": "fengyun-1c-debris", "lat": -47.316011747545495, "lon": -153.37864638499022, "alt_km": 874.2795300379703, "timestamp": "2025-12-08T10:52:03.233882+00:00", "meta": {"OBJECT_NAME": "FENGYUN 1C DEB", "OBJECT_ID": "1999-025CYB", "EPOCH": "2025-12-07T09:47:28.370400", "MEAN_MOTION": 14.01634288, "ECCENTRICITY": 0.00663448, "INCLINATION": 99.2532, "RA_OF_ASC_NODE": 35.7433, "ARG_OF_PERICENTER": 295.9892, "MEAN_ANOMALY": 63.4449, "EPHEMERIS_TYPE": 0, "CLASSIFICATION_TYPE": "U", "NORAD_CAT_ID": 32334, "ELEMENT_SET_NO": 999, "REV_AT_EPOCH": 93865, "BSTAR": 0.00058001273, "MEAN_MOTION_DOT": 8.49e-06, "MEAN_MOTION_DDOT": 0}, "tle": {"line1": "1 32334U 99025CYB 25341.40796725  .00000849  00000+0  58001-3 0  9992", "line2": "2 32334  99.2532  35.7433 0066344 295.9892  63.4449 14.01634288938657"}}, "geometry": {"type": "Point", "coordinates": [-153.37864638499022, -47.316011747545495]}}, {"type": "Feature", "properties": {"norad_id": 32340, "name": "FENGYUN 1C DEB", "group": "fengyun-1c-debris", "lat": 78.37445153617861, "lon": -141.96881375444366, "alt_km": 660.5446569161459, "timestamp": "2025-12-08T10:52:03.233917+00:00", "meta": {"OBJECT_NAME": "FENGYUN 1C DEB", "OBJECT_ID": "1999-025CYH", "EPOCH": "2025-12-07T06:44:16.323936", "MEAN_MOTION": 14.74334731, "ECCENTRICITY": 0.00344624, "INCLINATION": 98.9813, "RA_OF_ASC_NODE": 346.4929, "ARG_OF_PERICENTER": 311.5716, "MEAN_ANOMALY": 48.2537, "EPHEMERIS_TYPE": 0, "CLASSIFICATION_TYPE": "U", "NORAD_CAT_ID": 32340, "ELEMENT_SET_NO": 999, "REV_AT_EPOCH": 97116, "BSTAR": 0.0039894383, "MEAN_MOTION_DOT": 0.00026714, "MEAN_MOTION_DDOT": 0}, "tle": {"line1": "1 32340U 99025CYH 25341.28074449  .00026714  00000+0  39894-2 0  9994", "line2": "2 32340  98.9813 346.4929 0034462 311.5716  48.2537 14.74334731971162"}}, "geometry": {"type": "Point", "coordinates": [-141.96881375444366, 78.37445153617861]}}, {"type": "Feature", "properties": {"norad_id": 32342, "name": "FENGYUN 1C DEB", "group": "fengyun-1c-debris", "lat": 43.36764862409986, "lon": -17.095010161382916, "alt_km": 839.8313995390945, "timestamp": "2025-12-08T10:52:03.233931+00:00", "meta": {"OBJECT_NAME": "FENGYUN 1C DEB", "OBJECT_ID": "1999-025CYK", "EPOCH": "2025-12-07T23:02:48.185952", "MEAN_MOTION": 14.13395511, "ECCENTRICITY": 0.00077566, "INCLINATION": 98.6705, "RA_OF_ASC_NODE": 350.7149, "ARG_OF_PERICENTER": 5.201, "MEAN_ANOMALY": 54.0924, "EPHEMERIS_TYPE": 0, "CLASSIFICATION_TYPE": "U", "NORAD_CAT_ID": 32342, "ELEMENT_SET_NO": 999, "REV_AT_EPOCH": 93650, "BSTAR": 0.00015793528, "MEAN_MOTION_DOT": 2.54e-06, "MEAN_MOTION_DDOT": 0}, "tle": {"line1": "1 32342U 99025CYK 25341.96027993  .00000254  00000+0  15794-3 0  9998", "line2": "2 32342  98.6705 350.7149 0007756   5.2010  54.0924 14.13395511936503"}}, "geometry": {"type": "Point", "coordinates": [-17.095010161382916, 43.36764862409986]}}, {"type": "Feature", "properties": {"norad_id": 32343, "name": "FENGYUN 1C DEB", "group": "fengyun-1c-debris", "lat": 58.985516901957, "lon": 163.92707962757908, "alt_km": 717.6971150961726, "timestamp": "2025-12-08T10:52:03.233942+00:00", "meta": {"OBJECT_NAME": "FENGYUN 1C DEB", "OBJECT_ID": "1999-025CYL", "EPOCH": "2025-11-23T04:58:45.910848", "MEAN_MOTION": 14.1981282, "ECCENTRICITY": 0.01511129, "INCLINATION": 98.6065, "RA_OF_ASC_NODE": 314.5087, "ARG_OF_PERICENTER": 183.896, "MEAN_ANOMALY": 176.1052, "EPHEMERIS_TYPE": 0, "CLASSIFICATION_TYPE": "U", "NORAD_CAT_ID": 32343, "ELEMENT_SET_NO": 999, "REV_AT_EPOCH": 64436, "BSTAR": 0.00029765257, "MEAN_MOTION_DOT": 6.65e-06, "MEAN_MOTION_DDOT": 0}, "tle": {"line1": "1 32343U 99025CYL 25327.20747582  .00000665  00000+0  29765-3 0  9992", "line2": "2 32343  98.6065 314.5087 0151112 183.8960 176.1052 14.19812820644366"}}, "geometry": {"type": "Point", "coordinates": [163.92707962757908, 58.985516901957]}}]}